[{"OBJECT_NAME":"TOMORROW-S2","OBJECT_ID":"2024-149T","EPOCH":"2026-03-09T18:02:42.746496","MEAN_MOTION":15.30674935,"ECCENTRICITY":0.0001648,"INCLINATION":97.3857,"RA_OF_ASC_NODE":150.0385,"ARG_OF_PERICENTER":234.3331,"MEAN_ANOMALY":125.7757,"EPHEMERIS_TYPE":0,"CLASSIFICATION_TYPE":"U","NORAD_CAT_ID":60485,"ELEMENT_SET_NO":999,"REV_AT_EPOCH":8686,"BSTAR":0.00027683033,"MEAN_MOTION_DOT":8.133e-5,"MEAN_MOTION_DDOT":0},{"OBJECT_NAME":"STARLINK-33572","OBJECT_ID":"2025-015K","EPOCH":"2026-03-09T21:39:08.736480","MEAN_MOTION":15.30227181,"ECCENTRICITY":0.00010463,"INCLINATION":53.161,"RA_OF_ASC_NODE":321.4694,"ARG_OF_PERICENTER":75.9298,"MEAN_ANOMALY":284.1819,"EPHEMERIS_TYPE":0,"CLASSIFICATION_TYPE":"U","NORAD_CAT_ID":62767,"ELEMENT_SET_NO":999,"REV_AT_EPOCH":6445,"BSTAR":0.00086799094,"MEAN_MOTION_DOT":0.00025458,"MEAN_MOTION_DDOT":0}]
